[{"OBJECT_NAME":"STARLINK-4336","OBJECT_ID":"2022-077J","EPOCH":"2026-03-09T23:14:53.586528","MEAN_MOTION":15.01260982,"ECCENTRICITY":0.00032841,"INCLINATION":97.6018,"RA_OF_ASC_NODE":250.48,"ARG_OF_PERICENTER":65.2497,"MEAN_ANOMALY":294.9068,"EPHEMERIS_TYPE":0,"CLASSIFICATION_TYPE":"U","NORAD_CAT_ID":53051,"ELEMENT_SET_NO":999,"REV_AT_EPOCH":20095,"BSTAR":-5.879449e-6,"MEAN_MOTION_DOT":-1.34e-6,"MEAN_MOTION_DDOT":0},{"OBJECT_NAME":"FENGYUN 1C DEB","OBJECT_ID":"1999-025ECZ","EPOCH":"2026-03-06T15:56:09.405600","MEAN_MOTION":14.4183664,"ECCENTRICITY":0.02789031,"INCLINATION":98.8006,"RA_OF_ASC_NODE":17.7433,"ARG_OF_PERICENTER":114.6839,"MEAN_ANOMALY":248.3662,"EPHEMERIS_TYPE":0,"CLASSIFICATION_TYPE":"U","NORAD_CAT_ID":37017,"ELEMENT_SET_NO":999,"REV_AT_EPOCH":62370,"BSTAR":0.0010503478,"MEAN_MOTION_DOT":5.43e-5,"MEAN_MOTION_DDOT":0}]
